{"spkid": "50838098", "covariance": {"epoch": "2459008.5", "elements": [{"label": "e", "units": null, "title": "eccentricity", "value": ".3692917433384977", "sigma": 2.26526871465941e-08, "name": "e"}, {"label": "q", "units": "au", "title": "perihelion distance", "value": ".9999981091337361", "sigma": 3.69104763627576e-08, "name": "q"}, {"label": "tp", "name": "tp", "sigma": 2.90009739465127e-05, "units": "TDB", "value": "2459220.592181809754", "title": "time of perihelion passage"}, {"label": "node", "sigma": 4.33887673440686e-05, "name": "om", "units": "deg", "title": "longitude of the ascending node", "value": "109.6500642448088"}, {"name": "w", "sigma": 5.37570326219015e-05, "units": "deg", "title": "argument of perihelion", "value": "353.9535579006911", "label": "peri"}, {"sigma": 4.82955010256065e-06, "name": "i", "title": "inclination", "value": "1.825105264402306", "units": "deg", "label": "i"}], "data": [["5.131442349614696E-16", "-8.353409614790877E-16", "-4.143452500915539E-13", "7.742258551293924E-14", "-5.42619680033178E-13", "1.37901427098384E-14"], ["-8.353409614790877E-16", "1.362383265325691E-15", "6.54031305812159E-13", "-1.301575442445851E-13", "8.627612737035435E-13", "-2.07404750936749E-14"], ["-4.143452500915539E-13", "6.54031305812159E-13", "8.4105648984631E-10", "3.591486037648314E-11", "9.233182240920432E-10", "-4.864505102470902E-11"], ["7.742258551293924E-14", "-1.301575442445851E-13", "3.591486037648314E-11", "1.882585131637715E-9", "-1.838324985587237E-9", "1.463244666258393E-10"], ["-5.42619680033178E-13", "8.627612737035435E-13", "9.233182240920432E-10", "-1.838324985587237E-9", "2.889818556312181E-9", "-2.02190545988243E-10"], ["1.37901427098384E-14", "-2.07404750936749E-14", "-4.864505102470902E-11", "1.463244666258393E-10", "-2.02190545988243E-10", "2.332455419314355E-11"]], "labels": ["e", "q", "tp", "node", "peri", "i"]}, "elements": [{"label": "e", "title": "eccentricity", "value": ".3723975485909361", "units": null, "name": "e", "sigma": "2.41E-8"}, {"label": "a", "sigma": "3.4375E-9", "name": "a", "units": "au", "value": "1.594749988193692", "title": "semi-major axis"}, {"label": "q", "units": "au", "title": "perihelion distance", "value": "1.000869001974937", "sigma": "3.7164E-8", "name": "q"}, {"name": "i", "sigma": "4.8598E-6", "title": "inclination; angle with respect to x-y ecliptic plane", "value": "1.810204728027048", "units": "deg", "label": "i"}, {"sigma": "4.3915E-5", "name": "om", "units": "deg", "value": "109.3302443083975", "title": "longitude of the ascending node", "label": "node"}, {"sigma": "5.4263E-5", "name": "w", "value": "354.6875708337322", "title": "argument of perihelion", "units": "deg", "label": "peri"}, {"title": "mean anomaly", "value": "251.0152251593163", "units": "deg", "sigma": "1.4081E-5", "name": "ma", "label": "M"}, {"label": "tp", "sigma": "2.9085E-5", "name": "tp", "value": "2461423.189976174992", "title": "time of perihelion passage", "units": "TDB"}, {"name": "per", "sigma": "2.3784E-6", "units": "d", "value": "735.5925774053204", "title": "sidereal orbital period", "label": "period"}, {"label": "n", "sigma": "1.5824E-9", "name": "n", "title": "mean motion", "value": ".4894013494125236", "units": "deg/d"}, {"units": "au", "value": "2.188630974412447", "title": "aphelion distance", "sigma": "4.7176E-9", "name": "ad", "label": "Q"}], "epoch": "2461200.5"}